{"type": "FeatureCollection", "features": [ {"type": "Feature", "properties": {"norad_id": 43107, "name": "BEIDOU-3 M7 (C27)", "group": "gnss", "lat": -12.658329890749245, "lon": -60.625856224891244, "alt_km": 21529.13723463969, "timestamp": "2025-12-18T08:58:43.653863+00:00", "meta": {"OBJECT_NAME": "BEIDOU-3 M7 (C27)", "OBJECT_ID": "2018-003A", "EPOCH": "2025-12-17T07:45:51.117120", "MEAN_MOTION": 1.86232475, "ECCENTRICITY": 0.00027428, "INCLINATION": 54.4925, "RA_OF_ASC_NODE": 308.6547, "ARG_OF_PERICENTER": 69.5375, "MEAN_ANOMALY": 290.4783, "EPHEMERIS_TYPE": 0, "CLASSIFICATION_TYPE": "U", "NORAD_CAT_ID": 43107, "ELEMENT_SET_NO": 999, "REV_AT_EPOCH": 5396, "BSTAR": 0, "MEAN_MOTION_DOT": -9.2e-07, "MEAN_MOTION_DDOT": 0}, "tle": {"line1": "1 43107U 18003A   25351.32350830 -.00000092  00000+0  00000+0 0  9997", "line2": "2 43107  54.4925 308.6547 0002742  69.5375 290.4783  1.86232475 53963"}}, "geometry": {"type": "Point", "coordinates": [-60.625856224891244, -12.658329890749245]}}, {"type": "Feature", "properties": {"norad_id": 43108, "name": "BEIDOU-3 M8 (C28)", "group": "gnss", "lat": 17.193800596649677, "lon": -38.66653343104872, "alt_km": 21529.340240237285, "timestamp": "2025-12-18T08:58:43.653877+00:00", "meta": {"OBJECT_NAME": "BEIDOU-3 M8 (C28)", "OBJECT_ID": "2018-003B", "EPOCH": "2025-12-17T06:26:34.084320", "MEAN_MOTION": 1.8623095, "ECCENTRICITY": 0.00046498, "INCLINATION": 54.4854, "RA_OF_ASC_NODE": 308.6394, "ARG_OF_PERICENTER": 276.4476, "MEAN_ANOMALY": 83.4857, "EPHEMERIS_TYPE": 0, "CLASSIFICATION_TYPE": "U", "NORAD_CAT_ID": 43108, "ELEMENT_SET_NO": 999, "REV_AT_EPOCH": 5397, "BSTAR": 0, "MEAN_MOTION_DOT": -9.2e-07, "MEAN_MOTION_DDOT": 0}, "tle": {"line1": "1 43108U 18003B   25351.26845005 -.00000092  00000+0  00000+0 0  9994", "line2": "2 43108  54.4854 308.6394 0004649 276.4476  83.4857  1.86230950 53973"}}, "geometry": {"type": "Point", "coordinates": [-38.66653343104872, 17.193800596649677]}}, {"type": "Feature", "properties": {"norad_id": 43207, "name": "BEIDOU-3 M4 (C22)", "group": "gnss", "lat": 56.192527683438804, "lon": 150.1934692153048, "alt_km": 21519.14517559871, "timestamp": "2025-12-18T08:58:43.653888+00:00", "meta": {"OBJECT_NAME": "BEIDOU-3 M4 (C22)", "OBJECT_ID": "2018-018A", "EPOCH": "2025-12-17T17:03:00.962784", "MEAN_MOTION": 1.86231343, "ECCENTRICITY": 0.00041109, "INCLINATION": 56.4905, "RA_OF_ASC_NODE": 69.1395, "ARG_OF_PERICENTER": 7.1721, "MEAN_ANOMALY": 352.8599, "EPHEMERIS_TYPE": 0, "CLASSIFICATION_TYPE": "U", "NORAD_CAT_ID": 43207, "ELEMENT_SET_NO": 999, "REV_AT_EPOCH": 5336, "BSTAR": 0, "MEAN_MOTION_DOT": -7e-07, "MEAN_MOTION_DDOT": 0}, "tle": {"line1": "1 43207U 18018A   25351.71042781 -.00000070  00000+0  00000+0 0  9996", "line2": "2 43207  56.4905  69.1395 0004110   7.1721 352.8599  1.86231343 53363"}}, "geometry": {"type": "Point", "coordinates": [150.1934692153048, 56.192527683438804]}}, {"type": "Feature", "properties": {"norad_id": 43208, "name": "BEIDOU-3 M3 (C21)", "group": "gnss", "lat": 32.72366825763154, "lon": 94.29079456032889, "alt_km": 21522.2533211664, "timestamp": "2025-12-18T08:58:43.653902+00:00", "meta": {"OBJECT_NAME": "BEIDOU-3 M3 (C21)", "OBJECT_ID": "2018-018B", "EPOCH": "2025-12-17T18:38:47.514912", "MEAN_MOTION": 1.8623152, "ECCENTRICITY": 0.00067422, "INCLINATION": 56.4896, "RA_OF_ASC_NODE": 69.1416, "ARG_OF_PERICENTER": 315.779, "MEAN_ANOMALY": 44.1937, "EPHEMERIS_TYPE": 0, "CLASSIFICATION_TYPE": "U", "NORAD_CAT_ID": 43208, "ELEMENT_SET_NO": 999, "REV_AT_EPOCH": 5336, "BSTAR": 0, "MEAN_MOTION_DOT": -6.9e-07, "MEAN_MOTION_DDOT": 0}, "tle": {"line1": "1 43208U 18018B   25351.77693883 -.00000069  00000+0  00000+0 0  9996", "line2": "2 43208  56.4896  69.1416 0006742 315.7790  44.1937  1.86231520 53368"}}, "geometry": {"type": "Point", "coordinates": [94.29079456032889, 32.72366825763154]}}, {"type": "Feature", "properties": {"norad_id": 43245, "name": "BEIDOU-3 M9 (C29)", "group": "gnss", "lat": -51.86455196029246, "lon": -167.82761154481466, "alt_km": 21530.188515472517, "timestamp": "2025-12-18T08:58:43.653913+00:00", "meta": {"OBJECT_NAME": "BEIDOU-3 M9 (C29)", "OBJECT_ID": "2018-029A", "EPOCH": "2025-12-17T10:56:56.120640", "MEAN_MOTION": 1.86228468, "ECCENTRICITY": 0.00015623, "INCLINATION": 54.3612, "RA_OF_ASC_NODE": 306.303, "ARG_OF_PERICENTER": 285.5475, "MEAN_ANOMALY": 74.4222, "EPHEMERIS_TYPE": 0, "CLASSIFICATION_TYPE": "U", "NORAD_CAT_ID": 43245, "ELEMENT_SET_NO": 999, "REV_AT_EPOCH": 5251, "BSTAR": 0, "MEAN_MOTION_DOT": -9e-07, "MEAN_MOTION_DDOT": 0}, "tle": {"line1": "1 43245U 18029A   25351.45620510 -.00000090  00000+0  00000+0 0  9995", "line2": "2 43245  54.3612 306.3030 0001562 285.5475  74.4222  1.86228468 52515"}}, "geometry": {"type": "Point", "coordinates": [-167.82761154481466, -51.86455196029246]}}, {"type": "Feature", "properties": {"norad_id": 43246, "name": "BEIDOU-3 M10 (C30)", "group": "gnss", "lat": -45.41546144567614, "lon": -100.3912581684611, "alt_km": 21528.417852703653, "timestamp": "2025-12-18T08:58:43.653925+00:00", "meta": {"OBJECT_NAME": "BEIDOU-3 M10 (C30)", "OBJECT_ID": "2018-029B", "EPOCH": "2025-12-17T09:23:40.675200", "MEAN_MOTION": 1.8622912, "ECCENTRICITY": 0.00041993, "INCLINATION": 54.3586, "RA_OF_ASC_NODE": 306.3321, "ARG_OF_PERICENTER": 3.5987, "MEAN_ANOMALY": 356.3911, "EPHEMERIS_TYPE": 0, "CLASSIFICATION_TYPE": "U", "NORAD_CAT_ID": 43246, "ELEMENT_SET_NO": 999, "REV_AT_EPOCH": 5249, "BSTAR": 0, "MEAN_MOTION_DOT": -9e-07, "MEAN_MOTION_DDOT": 0}, "tle": {"line1": "1 43246U 18029B   25351.39144300 -.00000090  00000+0  00000+0 0  9997", "line2": "2 43246  54.3586 306.3321 0004199   3.5987 356.3911  1.86229120 52494"}}, "geometry": {"type": "Point", "coordinates": [-100.3912581684611, -45.41546144567614]}}, {"type": "Feature", "properties": {"norad_id": 43286, "name": "IRNSS-1I", "group": "gnss", "lat": -9.62004647114873, "lon": -85.35190559924757, "alt_km": 35699.30823837915, "timestamp": "2025-12-18T08:58:43.653936+00:00", "meta": {"OBJECT_NAME": "IRNSS-1I", "OBJECT_ID": "2018-035A", "EPOCH": "2025-12-14T19:56:38.641056", "MEAN_MOTION": 1.00272129, "ECCENTRICITY": 0.00217173, "INCLINATION": 29.1546, "RA_OF_ASC_NODE": 77.0653, "ARG_OF_PERICENTER": 182.6132, "MEAN_ANOMALY": 178.227, "EPHEMERIS_TYPE": 0, "CLASSIFICATION_TYPE": "U", "NORAD_CAT_ID": 43286, "ELEMENT_SET_NO": 999, "REV_AT_EPOCH": 2823, "BSTAR": 0, "MEAN_MOTION_DOT": 8.4e-07, "MEAN_MOTION_DDOT": 0}, "tle": {"line1": "1 43286U 18035A   25348.83100279  .00000084  00000+0  00000+0 0  9992", "line2": "2 43286  29.1546  77.0653 0021717 182.6132 178.2270  1.00272129 28237"}}, "geometry": {"type": "Point", "coordinates": [-85.35190559924757, -9.62004647114873]}}, {"type": "Feature", "properties": {"norad_id": 43508, "name": "COSMOS 2527 (756)", "group": "gnss", "lat": -31.006908543886215, "lon": 64.05577801755496, "alt_km": 19137.82487369244, "timestamp": "2025-12-18T08:58:43.653958+00:00", "meta": {"OBJECT_NAME": "COSMOS 2527 (756)", "OBJECT_ID": "2018-053A", "EPOCH": "2025-12-16T01:44:48.838272", "MEAN_MOTION": 2.13102153, "ECCENTRICITY": 0.00087862, "INCLINATION": 65.4745, "RA_OF_ASC_NODE": 80.02, "ARG_OF_PERICENTER": 225.9447, "MEAN_ANOMALY": 133.9962, "EPHEMERIS_TYPE": 0, "CLASSIFICATION_TYPE": "U", "NORAD_CAT_ID": 43508, "ELEMENT_SET_NO": 999, "REV_AT_EPOCH": 5837, "BSTAR": 0, "MEAN_MOTION_DOT": -5.4e-07, "MEAN_MOTION_DDOT": 0}, "tle": {"line1": "1 43508U 18053A   25350.07278748 -.00000054  00000+0  00000+0 0  9993", "line2": "2 43508  65.4745  80.0200 0008786 225.9447 133.9962  2.13102153 58379"}}, "geometry": {"type": "Point", "coordinates": [64.05577801755496, -31.006908543886215]}}, {"type": "Feature", "properties": {"norad_id": 43539, "name": "BEIDOU-2 IGSO-7 (C16)", "group": "gnss", "lat": 10.710194761329102, "lon": -22.968192731094515, "alt_km": 35643.169048705415, "timestamp": "2025-12-18T08:58:43.653980+00:00", "meta": {"OBJECT_NAME": "BEIDOU-2 IGSO-7 (C16)", "OBJECT_ID": "2018-057A", "EPOCH": "2025-12-15T07:47:07.120608", "MEAN_MOTION": 1.00256546, "ECCENTRICITY": 0.00926218, "INCLINATION": 55.1766, "RA_OF_ASC_NODE": 164.6485, "ARG_OF_PERICENTER": 235.2644, "MEAN_ANOMALY": 271.8458, "EPHEMERIS_TYPE": 0, "CLASSIFICATION_TYPE": "U", "NORAD_CAT_ID": 43539, "ELEMENT_SET_NO": 999, "REV_AT_EPOCH": 2728, "BSTAR": 0, "MEAN_MOTION_DOT": -2.3e-07, "MEAN_MOTION_DDOT": 0}, "tle": {"line1": "1 43539U 18057A   25349.32438797 -.00000023  00000+0  00000+0 0  9995", "line2": "2 43539  55.1766 164.6485 0092621 235.2644 271.8458  1.00256546 27289"}}, "geometry": {"type": "Point", "coordinates": [-22.968192731094515, 10.710194761329102]}}, {"type": "Feature", "properties": {"norad_id": 43564, "name": "GSAT0221 (GALILEO 25)", "group": "gnss", "lat": -11.575859629855248, "lon": -20.923818312834243, "alt_km": 23214.224942298664, "timestamp": "2025-12-18T08:58:43.654007+00:00", "meta": {"OBJECT_NAME": "GSAT0221 (GALILEO 25)", "OBJECT_ID": "2018-060A", "EPOCH": "2025-12-16T15:17:04.727328", "MEAN_MOTION": 1.70475939, "ECCENTRICITY": 0.00067149, "INCLINATION": 57.227, "RA_OF_ASC_NODE": 346.7122, "ARG_OF_PERICENTER": 284.7642, "MEAN_ANOMALY": 75.1785, "EPHEMERIS_TYPE": 0, "CLASSIFICATION_TYPE": "U", "NORAD_CAT_ID": 43564, "ELEMENT_SET_NO": 999, "REV_AT_EPOCH": 4605, "BSTAR": 0, "MEAN_MOTION_DOT": -8e-07, "MEAN_MOTION_DDOT": 0}, "tle": {"line1": "1 43564U 18060A   25350.63686027 -.00000080  00000+0  00000+0 0  9997", "line2": "2 43564  57.2270 346.7122 0006714 284.7642  75.1785  1.70475939 46056"}}, "geometry": {"type": "Point", "coordinates": [-20.923818312834243, -11.575859629855248]}}]}